{"type": "FeatureCollection", "features": [ {"type": "Feature", "properties": {"norad_id": 43010, "name": "FENGYUN 3D", "group": "weather", "lat": -8.856843855898063, "lon": -42.750177445539954, "alt_km": 831.147605366541, "timestamp": "2025-12-15T11:38:36.800634+00:00", "meta": {"OBJECT_NAME": "FENGYUN 3D", "OBJECT_ID": "2017-072A", "EPOCH": "2025-12-14T23:50:43.680768", "MEAN_MOTION": 14.19684329, "ECCENTRICITY": 0.00010317, "INCLINATION": 98.989, "RA_OF_ASC_NODE": 315.3376, "ARG_OF_PERICENTER": 174.1962, "MEAN_ANOMALY": 185.9225, "EPHEMERIS_TYPE": 0, "CLASSIFICATION_TYPE": "U", "NORAD_CAT_ID": 43010, "ELEMENT_SET_NO": 999, "REV_AT_EPOCH": 41885, "BSTAR": 2.4937965e-05, "MEAN_MOTION_DOT": 7e-08, "MEAN_MOTION_DDOT": 0}, "tle": {"line1": "1 43010U 17072A   25348.99356112  .00000007  00000+0  24938-4 0  9999", "line2": "2 43010  98.9890 315.3376 0001031 174.1962 185.9225 14.19684329418851"}}, "geometry": {"type": "Point", "coordinates": [-42.750177445539954, -8.856843855898063]}}, {"type": "Feature", "properties": {"norad_id": 43013, "name": "NOAA 20 (JPSS-1)", "group": "weather", "lat": 37.49962278780102, "lon": 112.54656024934208, "alt_km": 823.393691378511, "timestamp": "2025-12-15T11:38:36.800645+00:00", "meta": {"OBJECT_NAME": "NOAA 20 (JPSS-1)", "OBJECT_ID": "2017-073A", "EPOCH": "2025-12-14T21:26:39.539616", "MEAN_MOTION": 14.19526267, "ECCENTRICITY": 0.00021549, "INCLINATION": 98.76, "RA_OF_ASC_NODE": 285.1667, "ARG_OF_PERICENTER": 84.1144, "MEAN_ANOMALY": 276.0277, "EPHEMERIS_TYPE": 0, "CLASSIFICATION_TYPE": "U", "NORAD_CAT_ID": 43013, "ELEMENT_SET_NO": 999, "REV_AT_EPOCH": 41832, "BSTAR": 6.0674093e-05, "MEAN_MOTION_DOT": 8.4e-07, "MEAN_MOTION_DDOT": 0}, "tle": {"line1": "1 43013U 17073A   25348.89351319  .00000084  00000+0  60674-4 0  9998", "line2": "2 43013  98.7600 285.1667 0002154  84.1144 276.0277 14.19526267418324"}}, "geometry": {"type": "Point", "coordinates": [112.54656024934208, 37.49962278780102]}}, {"type": "Feature", "properties": {"norad_id": 43226, "name": "GOES 17", "group": "weather", "lat": 0.4542460415923698, "lon": 169.50284728060242, "alt_km": 35790.48518225026, "timestamp": "2025-12-15T11:38:36.800658+00:00", "meta": {"OBJECT_NAME": "GOES 17", "OBJECT_ID": "2018-022A", "EPOCH": "2025-12-14T21:33:14.450688", "MEAN_MOTION": 1.00271596, "ECCENTRICITY": 0.00031843, "INCLINATION": 0.4652, "RA_OF_ASC_NODE": 89.1017, "ARG_OF_PERICENTER": 189.5382, "MEAN_ANOMALY": 38.9867, "EPHEMERIS_TYPE": 0, "CLASSIFICATION_TYPE": "U", "NORAD_CAT_ID": 43226, "ELEMENT_SET_NO": 999, "REV_AT_EPOCH": 2857, "BSTAR": 0, "MEAN_MOTION_DOT": -1.63e-06, "MEAN_MOTION_DDOT": 0}, "tle": {"line1": "1 43226U 18022A   25348.89808392 -.00000163  00000+0  00000+0 0  9998", "line2": "2 43226   0.4652  89.1017 0003184 189.5382  38.9867  1.00271596 28578"}}, "geometry": {"type": "Point", "coordinates": [169.50284728060242, 0.4542460415923698]}}, {"type": "Feature", "properties": {"norad_id": 43491, "name": "FENGYUN 2H", "group": "weather", "lat": -2.4944890474108665, "lon": -21.59039830534194, "alt_km": 35786.47949940737, "timestamp": "2025-12-15T11:38:36.800671+00:00", "meta": {"OBJECT_NAME": "FENGYUN 2H", "OBJECT_ID": "2018-050A", "EPOCH": "2025-12-14T22:21:24.837408", "MEAN_MOTION": 1.00271326, "ECCENTRICITY": 0.00026186, "INCLINATION": 2.5567, "RA_OF_ASC_NODE": 81.3073, "ARG_OF_PERICENTER": 167.3824, "MEAN_ANOMALY": 249.8641, "EPHEMERIS_TYPE": 0, "CLASSIFICATION_TYPE": "U", "NORAD_CAT_ID": 43491, "ELEMENT_SET_NO": 999, "REV_AT_EPOCH": 2759, "BSTAR": 0, "MEAN_MOTION_DOT": -1.11e-06, "MEAN_MOTION_DDOT": 0}, "tle": {"line1": "1 43491U 18050A   25348.93153747 -.00000111  00000+0  00000+0 0  9998", "line2": "2 43491   2.5567  81.3073 0002618 167.3824 249.8641  1.00271326 27597"}}, "geometry": {"type": "Point", "coordinates": [-21.59039830534194, -2.4944890474108665]}}, {"type": "Feature", "properties": {"norad_id": 43689, "name": "METOP-C", "group": "weather", "lat": -56.84640928932081, "lon": 60.75784251045033, "alt_km": 827.4050364303293, "timestamp": "2025-12-15T11:38:36.800682+00:00", "meta": {"OBJECT_NAME": "METOP-C", "OBJECT_ID": "2018-087A", "EPOCH": "2025-12-14T20:42:41.109984", "MEAN_MOTION": 14.21485156, "ECCENTRICITY": 0.00011469, "INCLINATION": 98.6929, "RA_OF_ASC_NODE": 46.6002, "ARG_OF_PERICENTER": 36.0116, "MEAN_ANOMALY": 324.1138, "EPHEMERIS_TYPE": 0, "CLASSIFICATION_TYPE": "U", "NORAD_CAT_ID": 43689, "ELEMENT_SET_NO": 999, "REV_AT_EPOCH": 36864, "BSTAR": 8.2885837e-05, "MEAN_MOTION_DOT": 1.38e-06, "MEAN_MOTION_DDOT": 0}, "tle": {"line1": "1 43689U 18087A   25348.86297581  .00000138  00000+0  82886-4 0  9999", "line2": "2 43689  98.6929  46.6002 0001146  36.0116 324.1138 14.21485156368648"}}, "geometry": {"type": "Point", "coordinates": [60.75784251045033, -56.84640928932081]}}, {"type": "Feature", "properties": {"norad_id": 43823, "name": "GEO-KOMPSAT-2A", "group": "weather", "lat": -0.022758311708164503, "lon": 27.305151874693294, "alt_km": 35785.71069463069, "timestamp": "2025-12-15T11:38:36.800702+00:00", "meta": {"OBJECT_NAME": "GEO-KOMPSAT-2A", "OBJECT_ID": "2018-100A", "EPOCH": "2025-12-14T19:09:50.685120", "MEAN_MOTION": 1.00272904, "ECCENTRICITY": 4.857e-05, "INCLINATION": 0.0478, "RA_OF_ASC_NODE": 139.8747, "ARG_OF_PERICENTER": 333.1425, "MEAN_ANOMALY": 26.433, "EPHEMERIS_TYPE": 0, "CLASSIFICATION_TYPE": "U", "NORAD_CAT_ID": 43823, "ELEMENT_SET_NO": 999, "REV_AT_EPOCH": 2578, "BSTAR": 0, "MEAN_MOTION_DOT": -3.24e-06, "MEAN_MOTION_DDOT": 0}, "tle": {"line1": "1 43823U 18100A   25348.79850330 -.00000324  00000+0  00000+0 0  9995", "line2": "2 43823   0.0478 139.8747 0000485 333.1425  26.4330  1.00272904 25783"}}, "geometry": {"type": "Point", "coordinates": [27.305151874693294, -0.022758311708164503]}}, {"type": "Feature", "properties": {"norad_id": 44387, "name": "METEOR-M2 2", "group": "weather", "lat": 43.28056424884531, "lon": -39.23555302604355, "alt_km": 807.3506053291885, "timestamp": "2025-12-15T11:38:36.800716+00:00", "meta": {"OBJECT_NAME": "METEOR-M2 2", "OBJECT_ID": "2019-038A", "EPOCH": "2025-12-14T21:56:59.871840", "MEAN_MOTION": 14.24293826, "ECCENTRICITY": 0.00013702, "INCLINATION": 98.8973, "RA_OF_ASC_NODE": 328.67, "ARG_OF_PERICENTER": 143.6266, "MEAN_ANOMALY": 216.5006, "EPHEMERIS_TYPE": 0, "CLASSIFICATION_TYPE": "U", "NORAD_CAT_ID": 44387, "ELEMENT_SET_NO": 999, "REV_AT_EPOCH": 33506, "BSTAR": 0.00021510797, "MEAN_MOTION_DOT": 4.51e-06, "MEAN_MOTION_DDOT": 0}, "tle": {"line1": "1 44387U 19038A   25348.91458185  .00000451  00000+0  21511-3 0  9992", "line2": "2 44387  98.8973 328.6700 0001370 143.6266 216.5006 14.24293826335065"}}, "geometry": {"type": "Point", "coordinates": [-39.23555302604355, 43.28056424884531]}}, {"type": "Feature", "properties": {"norad_id": 47719, "name": "ARKTIKA-M 1", "group": "weather", "lat": 37.31193351250987, "lon": -118.99855932759642, "alt_km": 18270.388604104333, "timestamp": "2025-12-15T11:38:36.800729+00:00", "meta": {"OBJECT_NAME": "ARKTIKA-M 1", "OBJECT_ID": "2021-016A", "EPOCH": "2025-12-09T14:03:23.859648", "MEAN_MOTION": 2.00631311, "ECCENTRICITY": 0.7202538, "INCLINATION": 63.1769, "RA_OF_ASC_NODE": 84.4506, "ARG_OF_PERICENTER": 269.1116, "MEAN_ANOMALY": 15.6235, "EPHEMERIS_TYPE": 0, "CLASSIFICATION_TYPE": "U", "NORAD_CAT_ID": 47719, "ELEMENT_SET_NO": 999, "REV_AT_EPOCH": 3498, "BSTAR": 0, "MEAN_MOTION_DOT": -6.1e-07, "MEAN_MOTION_DDOT": 0}, "tle": {"line1": "1 47719U 21016A   25343.58569282 -.00000061  00000+0  00000+0 0  9996", "line2": "2 47719  63.1769  84.4506 7202538 269.1116  15.6235  2.00631311 34985"}}, "geometry": {"type": "Point", "coordinates": [-118.99855932759642, 37.31193351250987]}}, {"type": "Feature", "properties": {"norad_id": 49008, "name": "FENGYUN 3E", "group": "weather", "lat": -39.7937746128789, "lon": -2.6571054825445164, "alt_km": 832.0889483316732, "timestamp": "2025-12-15T11:38:36.800743+00:00", "meta": {"OBJECT_NAME": "FENGYUN 3E", "OBJECT_ID": "2021-062A", "EPOCH": "2025-12-14T23:59:40.614432", "MEAN_MOTION": 14.19880294, "ECCENTRICITY": 5.899e-05, "INCLINATION": 98.748, "RA_OF_ASC_NODE": 349.4942, "ARG_OF_PERICENTER": 247.6587, "MEAN_ANOMALY": 112.4527, "EPHEMERIS_TYPE": 0, "CLASSIFICATION_TYPE": "U", "NORAD_CAT_ID": 49008, "ELEMENT_SET_NO": 999, "REV_AT_EPOCH": 23044, "BSTAR": 9.0382834e-05, "MEAN_MOTION_DOT": 1.48e-06, "MEAN_MOTION_DDOT": 0}, "tle": {"line1": "1 49008U 21062A   25348.99977563  .00000148  00000+0  90383-4 0  9998", "line2": "2 49008  98.7480 349.4942 0000589 247.6587 112.4527 14.19880294230446"}}, "geometry": {"type": "Point", "coordinates": [-2.6571054825445164, -39.7937746128789]}}, {"type": "Feature", "properties": {"norad_id": 51850, "name": "GOES 18", "group": "weather", "lat": -0.006768057118416961, "lon": 122.03405326127186, "alt_km": 35788.18328768894, "timestamp": "2025-12-15T11:38:36.800754+00:00", "meta": {"OBJECT_NAME": "GOES 18", "OBJECT_ID": "2022-021A", "EPOCH": "2025-12-14T17:54:12.928608", "MEAN_MOTION": 1.0027115, "ECCENTRICITY": 4.94e-05, "INCLINATION": 0.0108, "RA_OF_ASC_NODE": 167.1867, "ARG_OF_PERICENTER": 151.1278, "MEAN_ANOMALY": 256.9021, "EPHEMERIS_TYPE": 0, "CLASSIFICATION_TYPE": "U", "NORAD_CAT_ID": 51850, "ELEMENT_SET_NO": 999, "REV_AT_EPOCH": 474, "BSTAR": 0, "MEAN_MOTION_DOT": 1.16e-06, "MEAN_MOTION_DDOT": 0}, "tle": {"line1": "1 51850U 22021A   25348.74598297  .00000116  00000+0  00000+0 0  9995", "line2": "2 51850   0.0108 167.1867 0000494 151.1278 256.9021  1.00271150  4745"}}, "geometry": {"type": "Point", "coordinates": [122.03405326127186, -0.006768057118416961]}}]}